NORAD_CAT_ID,OBJECT_NAME,OBJECT_TYPE,EPOCH,MEAN_MOTION,ECCENTRICITY,INCLINATION,RA_OF_ASC_NODE,ARG_OF_PERICENTER,MEAN_ANOMALY,BSTAR,MEAN_MOTION_DOT,MEAN_MOTION_DDOT,TLE_LINE0,TLE_LINE1,TLE_LINE2,SEMIMAJOR_AXIS,PERIOD,APOGEE,PERIGEE,DECAYED
52856.0,STARLINK-4201,PAYLOAD,2024-05-25 18:26:30,15.0883953,0.0001479,53.2188,75.245,104.3489,255.7667,-5.5191e-05,-1.166e-05,0.0,0 STARLINK-4201,1 52856U 22062AC  24146.76841108 -.00001166  00000-0 -55191-4 0  9991,2 52856  53.2188  75.2450 0001479 104.3489 255.7667 15.08839530107848,6917.882,95.438,540.77,538.724,0.0
52856.0,STARLINK-4201,PAYLOAD,2024-05-26 03:58:49,15.08838882,0.0001328,53.2183,73.4609,97.8487,262.2655,-5.6389e-05,-1.185e-05,0.0,0 STARLINK-4201,1 52856U 22062AC  24147.16585221 -.00001185  00000-0 -56389-4 0  9998,2 52856  53.2183  73.4609 0001328  97.8487 262.2655 15.08838882107418,6917.884,95.438,540.668,538.83,0.0
52856.0,STARLINK-4201,PAYLOAD,2024-05-26 23:03:27,15.08838658,0.0001073,53.218,69.8918,94.2664,265.8451,4.3848e-05,4.1e-06,0.0,0 STARLINK-4201,1 52856U 22062AC  24147.96073095  .00000410  00000-0  43848-4 0  9991,2 52856  53.2180  69.8918 0001073  94.2664 265.8451 15.08838658107539,6917.884,95.438,540.492,539.007,0.0
52856.0,STARLINK-4201,PAYLOAD,2024-05-27 03:49:36,15.08840142,0.0001349,53.2179,69.0012,77.5577,282.5566,0.00013442,1.852e-05,0.0,0 STARLINK-4201,1 52856U 22062AC  24148.15944878  .00001852  00000-0  13442-3 0  9996,2 52856  53.2179  69.0012 0001349  77.5577 282.5566 15.08840142108059,6917.88,95.438,540.678,538.812,0.0
52856.0,STARLINK-4201,PAYLOAD,2024-05-27 11:46:31,15.08848791,0.0001406,53.2188,67.5118,89.6871,270.4282,7.5089e-05,9.08e-06,0.0,0 STARLINK-4201,1 52856U 22062AC  24148.49064291  .00000908  00000-0  75089-4 0  9992,2 52856  53.2188  67.5118 0001406  89.6871 270.4282 15.08848791107614,6917.854,95.437,540.691,538.746,0.0
52856.0,STARLINK-4201,PAYLOAD,2024-05-27 22:54:14,15.08836996,0.000158,53.218,65.4315,85.6193,274.498,9.6588e-05,1.249e-05,0.0,0 STARLINK-4201,1 52856U 22062AC  24148.95433178  .00001249  00000-0  96588-4 0  9993,2 52856  53.2180  65.4315 0001580  85.6193 274.4980 15.08836996107688,6917.89,95.438,540.848,538.662,0.0
52856.0,STARLINK-4201,PAYLOAD,2024-05-28 03:40:23,15.08843994,0.0001284,53.2176,64.5362,95.2414,264.8725,9.196e-05,1.176e-05,0.0,0 STARLINK-4201,1 52856U 22062AC  24149.15304617  .00001176  00000-0  91960-4 0  9999,2 52856  53.2176  64.5362 0001284  95.2414 264.8725 15.08843994108204,6917.868,95.437,540.621,538.845,0.0
52856.0,STARLINK-4201,PAYLOAD,2024-05-28 11:37:18,15.08845272,0.0001258,53.2177,63.0491,97.7546,262.3589,7.7145e-05,9.4e-06,0.0,0 STARLINK-4201,1 52856U 22062AC  24149.48424434  .00000940  00000-0  77145-4 0  9992,2 52856  53.2177  63.0491 0001258  97.7546 262.3589 15.08845272107768,6917.864,95.437,540.6,538.859,0.0
52856.0,STARLINK-4201,PAYLOAD,2024-05-29 00:20:24,15.08841821,0.0001573,53.2183,60.6705,86.6328,273.4844,-3.1902e-05,-7.96e-06,0.0,0 STARLINK-4201,1 52856U 22062AC  24150.01417266 -.00000796  00000-0 -31902-4 0  9990,2 52856  53.2183  60.6705 0001573  86.6328 273.4844 15.08841821108338,6917.875,95.437,540.828,538.652,0.0
52856.0,STARLINK-4201,PAYLOAD,2024-05-29 22:35:48,15.08845487,0.0001358,53.2177,56.5045,95.2939,264.8208,-5.6952e-07,-2.97e-06,0.0,0 STARLINK-4201,1 52856U 22062AC  24150.94152830 -.00000297  00000-0 -56952-6 0  9995,2 52856  53.2177  56.5045 0001358  95.2939 264.8208 15.08845487107987,6917.864,95.437,540.668,538.789,0.0
52856.0,STARLINK-4201,PAYLOAD,2024-05-30 03:21:57,15.08846051,0.0001352,53.2172,55.6127,87.2171,272.8976,1.435e-05,-6e-07,0.0,0 STARLINK-4201,1 52856U 22062AC  24151.14024734 -.00000060  00000-0  14350-4 0  9990,2 52856  53.2172  55.6127 0001352  87.2171 272.8976 15.08846051108504,6917.862,95.437,540.662,538.792,0.0
52856.0,STARLINK-4201,PAYLOAD,2024-05-30 22:26:34,15.08847805,0.000156,53.218,52.0483,107.4751,252.6412,5.187e-05,5.38e-06,0.0,0 STARLINK-4201,1 52856U 22062AC  24151.93512406  .00000538  00000-0  51870-4 0  9992,2 52856  53.2180  52.0483 0001560 107.4751 252.6412 15.08847805108137,6917.857,95.437,540.801,538.642,0.0
52856.0,STARLINK-4201,PAYLOAD,2024-05-31 03:12:43,15.08849219,0.000152,53.2178,51.1553,108.2608,251.855,6.7602e-05,7.88e-06,0.0,0 STARLINK-4201,1 52856U 22062AC  24152.13384104  .00000788  00000-0  67602-4 0  9994,2 52856  53.2178  51.1553 0001520 108.2608 251.8550 15.08849219108166,6917.852,95.437,540.769,538.666,0.0
52856.0,STARLINK-4201,PAYLOAD,2024-05-31 20:41:59,15.0883255,0.0001241,53.2183,47.8867,102.5915,257.5216,-1.4932e-05,-5.25e-06,0.0,0 STARLINK-4201,1 52856U 22062AC  24152.86249586 -.00000525  00000-0 -14932-4 0  9997,2 52856  53.2183  47.8867 0001241 102.5915 257.5216 15.08832550108768,6917.903,95.438,540.627,538.91,0.0
52856.0,STARLINK-4201,PAYLOAD,2024-05-31 22:17:22,15.08833399,0.0001336,53.2185,47.5894,105.2884,254.8256,-3.5566e-06,-3.44e-06,0.0,0 STARLINK-4201,1 52856U 22062AC  24152.92873510 -.00000344  00000-0 -35566-5 0  9990,2 52856  53.2185  47.5894 0001336 105.2884 254.8256 15.08833399108280,6917.901,95.438,540.69,538.841,0.0
52856.0,STARLINK-4201,PAYLOAD,2024-06-01 09:25:04,15.08837879,0.0001271,53.2178,45.5067,92.0479,268.0659,-1.2556e-05,-4.88e-06,0.0,0 STARLINK-4201,1 52856U 22062AC  24153.39241372 -.00000488  00000-0 -12556-4 0  9999,2 52856  53.2178  45.5067 0001271  92.0479 268.0659 15.08837879108352,6917.887,95.438,540.631,538.873,0.0
52856.0,STARLINK-4201,PAYLOAD,2024-06-01 20:32:46,15.08841599,0.0001288,53.2184,43.4272,88.2006,271.9134,-1.1003e-05,-4.63e-06,0.0,0 STARLINK-4201,1 52856U 22062AC  24153.85609333 -.00000463  00000-0 -11003-4 0  9994,2 52856  53.2184  43.4272 0001288  88.2006 271.9134 15.08841599108912,6917.876,95.437,540.632,538.849,0.0
52856.0,STARLINK-4201,PAYLOAD,2024-06-01 23:43:32,15.08846047,0.0001298,53.2186,42.8339,90.9124,269.2017,3.6411e-05,2.92e-06,0.0,0 STARLINK-4201,1 52856U 22062AC  24153.98856901  .00000292  00000-0  36411-4 0  9991,2 52856  53.2186  42.8339 0001298  90.9124 269.2017 15.08846047108444,6917.862,95.437,540.625,538.829,0.0
52856.0,STARLINK-4201,PAYLOAD,2024-06-03 02:45:06,15.08834295,0.0001226,53.2182,37.7768,77.7454,282.3675,6.5729e-05,7.58e-06,0.0,0 STARLINK-4201,1 52856U 22062AC  24155.11465968  .00000758  00000-0  65729-4 0  9998,2 52856  53.2182  37.7768 0001226  77.7454 282.3675 15.08834295109101,6917.898,95.438,540.611,538.915,0.0
52856.0,STARLINK-4201,PAYLOAD,2024-06-03 09:06:39,15.08835164,0.0001219,53.2183,36.5873,79.4687,280.6442,6.8405e-05,8.01e-06,0.0,0 STARLINK-4201,1 52856U 22062AC  24155.37962067  .00000801  00000-0  68405-4 0  9991,2 52856  53.2183  36.5873 0001219  79.4687 280.6442 15.08835164108653,6917.895,95.438,540.603,538.917,0.0
52856.0,STARLINK-4201,PAYLOAD,2024-06-04 01:00:29,15.08851723,0.0001128,53.2165,33.6129,95.3097,264.8024,8.7495e-05,1.105e-05,0.0,0 STARLINK-4201,1 52856U 22062AC  24156.04200842  .00001105  00000-0  87495-4 0  9990,2 52856  53.2165  33.6129 0001128  95.3097 264.8024 15.08851723109241,6917.845,95.437,540.49,538.929,0.0
52856.0,STARLINK-4201,PAYLOAD,2024-06-04 08:57:24,15.08848678,5.46e-05,53.2194,32.1293,233.9442,126.1499,5.4214e-05,5.76e-06,0.0,0 STARLINK-4201,1 52856U 22062AC  24156.37320305  .00000576  00000-0  54214-4 0  9997,2 52856  53.2194  32.1293 0000546 233.9442 126.1499 15.08848678108808,6917.854,95.437,540.097,539.341,0.0
52856.0,STARLINK-4201,PAYLOAD,2024-06-04 21:40:30,15.0884895,9.57e-05,53.2266,29.7496,67.1912,292.9181,-1.4064e-05,-5.12e-06,0.0,0 STARLINK-4201,1 52856U 22062AC  24156.90313357 -.00000512  00000-0 -14064-4 0  9996,2 52856  53.2266  29.7496 0000957  67.1912 292.9181 15.08848950108881,6917.853,95.437,540.38,539.056,0.0
52856.0,STARLINK-4201,PAYLOAD,2024-06-05 00:51:16,15.08850054,0.0001135,53.218,29.1514,75.3673,284.7445,8.2637e-05,1.028e-05,0.0,0 STARLINK-4201,1 52856U 22062AC  24157.03560834  .00001028  00000-0  82637-4 0  9997,2 52856  53.2180  29.1514 0001135  75.3673 284.7445 15.08850054109392,6917.85,95.437,540.5,538.929,0.0
52856.0,STARLINK-4201,PAYLOAD,2024-06-05 08:48:13,15.08832397,0.0001489,53.2177,27.6664,82.1609,277.9552,-1.2331e-06,-3.08e-06,0.0,0 STARLINK-4201,1 52856U 22062AC  24157.36682329 -.00000308  00000-0 -12331-5 0  9994,2 52856  53.2177  27.6664 0001489  82.1609 277.9552 15.08832397109443,6917.904,95.438,540.799,538.739,0.0
52856.0,STARLINK-4201,PAYLOAD,2024-06-05 15:09:45,15.08832823,2.32e-05,53.2179,26.4766,240.3747,119.7222,-2.2533e-05,-6.46e-06,0.0,0 STARLINK-4201,1 52856U 22062AC  24157.63177717 -.00000646  00000-0 -22533-4 0  9993,2 52856  53.2179  26.4766 0000232 240.3747 119.7222 15.08832823108991,6917.902,95.438,539.928,539.607,0.0
52856.0,STARLINK-4201,PAYLOAD,2024-06-05 21:31:18,15.08838115,0.000138,53.2162,25.2895,82.7524,277.3625,-5.3802e-05,-1.144e-05,0.0,0 STARLINK-4201,1 52856U 22062AC  24157.89674172 -.00001144  00000-0 -53802-4 0  9995,2 52856  53.2162  25.2895 0001380  82.7524 277.3625 15.08838115109033,6917.886,95.438,540.706,538.796,0.0
52856.0,STARLINK-4201,PAYLOAD,2024-06-06 08:39:00,15.08837392,0.000142,53.2163,23.2067,86.4418,273.6736,2.1189e-05,4.9e-07,0.0,0 STARLINK-4201,1 52856U 22062AC  24158.36042078  .00000049  00000-0  21189-4 0  9996,2 52856  53.2163  23.2067 0001420  86.4418 273.6736 15.08837392109590,6917.888,95.438,540.736,538.771,0.0
52856.0,STARLINK-4201,PAYLOAD,2024-06-07 00:32:51,15.08847977,0.0001285,53.2156,20.2314,91.0314,269.0826,4.223e-05,3.84e-06,0.0,0 STARLINK-4201,1 52856U 22062AC  24159.02281294  .00000384  00000-0  42230-4 0  9997,2 52856  53.2156  20.2314 0001285  91.0314 269.0826 15.08847977109690,6917.856,95.437,540.61,538.832,0.0
52856.0,STARLINK-4201,PAYLOAD,2024-06-07 14:51:19,15.08837215,0.000148,53.2126,17.5537,90.9942,269.122,0.00012566,1.712e-05,0.0,0 STARLINK-4201,1 52856U 22062AC  24159.61897957  .00001712  00000-0  12566-3 0  9995,2 52856  53.2126  17.5537 0001480  90.9942 269.1220 15.08837215109294,6917.889,95.438,540.778,538.73,0.0
